SL-3 R/B                
1 13403U 82079B   26063.48250119  .00009946  00000+0  39751-3 0  9999
2 13403  81.1476 199.2242 0024829 182.3187 177.7936 15.24705681376908
SL-14 R/B               
1 13553U 82092B   26063.32767594  .00000716  00000+0  77683-4 0  9996
2 13553  82.5703 146.4141 0019335 322.4519 105.9030 14.86660511328135
SL-3 R/B                
1 13819U 83010B   26063.32505115  .00026546  00000+0  53683-3 0  9993
2 13819  81.1063   8.8216 0018388  68.0841 292.2356 15.46126696357115
SL-3 R/B                
1 14208U 83075B   26063.48332982  .00017285  00000+0  45725-3 0  9992
2 14208  97.6134  67.8635 0019760 246.2702 113.6469 15.38268030329356
COSMOS 1536             
1 14699U 84013A   26063.20379506  .00009517  00000+0  39379-3 0  9999
2 14699  82.5437 113.3040 0012779 304.9035  55.1000 15.23742162271781
SL-14 R/B               
1 14820U 84027B   26063.50815745  .00000720  00000+0  79469-4 0  9995
2 14820  82.5381 249.8737 0017809 355.5835   4.5221 14.85970480246869
SL-8 R/B                
1 15483U 85006B   26063.03986294  .00000220  00000+0  81763-4 0  9990
2 15483  74.0434 271.5456 0018680 190.6418 322.8304 14.37778554153212
SL-12 R/B(2)            
1 15772U 85042D   26063.49712490  .00000172  00000+0  98860-4 0  9998
2 15772  71.1064  98.7002 0033475 136.6514 328.1502 14.21980911113650
SL-14 R/B               
1 15945U 85069B   26063.35987472  .00000804  00000+0  88147-4 0  9997
2 15945  82.5274  29.9442 0018004 205.8051 154.2270 14.86426087172049
SL-16 R/B               
1 16182U 85097B   26063.48267590 -.00000041  00000+0  35046-5 0  9993
2 16182  71.0036 151.5159 0009972 265.9650 174.8235 14.16599758 86496
SL-14 R/B               
1 16496U 86006B   26063.06912487  .00000832  00000+0  86044-4 0  9998
2 16496  82.5234 265.0285 0075179 291.8180  67.5051 14.86806497148378
COSMOS 1743             
1 16719U 86034A   26063.44077787  .00047605  00000+0  62990-3 0  9996
2 16719  82.5292  79.3382 0002166 330.0166  30.0965 15.58117279179433
